CCSDS_OMM_VERS = 2.0
CREATION_DATE  = 
ORIGINATOR     = 

OBJECT_NAME    = SL-4 R/B
OBJECT_ID      = 2014-021B
CENTER_NAME    = EARTH
REF_FRAME      = TEME
TIME_SYSTEM    = UTC
MEAN_ELEMENT_THEORY = SGP/SGP4

EPOCH          = 2026-01-24T06:17:35.958336
MEAN_MOTION    = 15.37782681
ECCENTRICITY   = .00991299
INCLINATION    = 51.6065
RA_OF_ASC_NODE = 193.7744
ARG_OF_PERICENTER = 300.8503
MEAN_ANOMALY   = 58.2757

EPHEMERIS_TYPE = 0
CLASSIFICATION_TYPE = U
NORAD_CAT_ID   = 39679
ELEMENT_SET_NO = 999
REV_AT_EPOCH   = 64943
BSTAR          = .39506515E-3
MEAN_MOTION_DOT = .17225E-3
MEAN_MOTION_DDOT = 0

CCSDS_OMM_VERS = 2.0
CREATION_DATE  = 
ORIGINATOR     = 

OBJECT_NAME    = ALOS-2
OBJECT_ID      = 2014-029A
CENTER_NAME    = EARTH
REF_FRAME      = TEME
TIME_SYSTEM    = UTC
MEAN_ELEMENT_THEORY = SGP/SGP4

EPOCH          = 2026-01-24T06:49:06.669408
MEAN_MOTION    = 14.79460965
ECCENTRICITY   = .00014307
INCLINATION    = 97.9196
RA_OF_ASC_NODE = 123.5190
ARG_OF_PERICENTER = 104.0067
MEAN_ANOMALY   = 256.1304

EPHEMERIS_TYPE = 0
CLASSIFICATION_TYPE = U
NORAD_CAT_ID   = 39766
ELEMENT_SET_NO = 999
REV_AT_EPOCH   = 63030
BSTAR          = .57423143E-4
MEAN_MOTION_DOT = .377E-5
MEAN_MOTION_DDOT = 0

CCSDS_OMM_VERS = 2.0
CREATION_DATE  = 
ORIGINATOR     = 

OBJECT_NAME    = YAOGAN-29
OBJECT_ID      = 2015-069A
CENTER_NAME    = EARTH
REF_FRAME      = TEME
TIME_SYSTEM    = UTC
MEAN_ELEMENT_THEORY = SGP/SGP4

EPOCH          = 2026-01-24T07:54:32.096160
MEAN_MOTION    = 14.82938860
ECCENTRICITY   = .00027083
INCLINATION    = 98.0187
RA_OF_ASC_NODE = 52.6316
ARG_OF_PERICENTER = 110.9529
MEAN_ANOMALY   = 249.1975

EPHEMERIS_TYPE = 0
CLASSIFICATION_TYPE = U
NORAD_CAT_ID   = 41038
ELEMENT_SET_NO = 999
REV_AT_EPOCH   = 54930
BSTAR          = .54006691E-4
MEAN_MOTION_DOT = .384E-5
MEAN_MOTION_DDOT = 0

CCSDS_OMM_VERS = 2.0
CREATION_DATE  = 
ORIGINATOR     = 

OBJECT_NAME    = ASTRO-H (HITOMI)
OBJECT_ID      = 2016-012A
CENTER_NAME    = EARTH
REF_FRAME      = TEME
TIME_SYSTEM    = UTC
MEAN_ELEMENT_THEORY = SGP/SGP4

EPOCH          = 2026-01-24T00:14:08.490336
MEAN_MOTION    = 15.09665974
ECCENTRICITY   = .0009913
INCLINATION    = 30.9998
RA_OF_ASC_NODE = 284.8060
ARG_OF_PERICENTER = 244.5116
MEAN_ANOMALY   = 115.4496

EPHEMERIS_TYPE = 0
CLASSIFICATION_TYPE = U
NORAD_CAT_ID   = 41337
ELEMENT_SET_NO = 999
REV_AT_EPOCH   = 54547
BSTAR          = .2847E-3
MEAN_MOTION_DOT = .4796E-4
MEAN_MOTION_DDOT = 0

CCSDS_OMM_VERS = 2.0
CREATION_DATE  = 
ORIGINATOR     = 

OBJECT_NAME    = HXMT (HUIYAN)
OBJECT_ID      = 2017-034A
CENTER_NAME    = EARTH
REF_FRAME      = TEME
TIME_SYSTEM    = UTC
MEAN_ELEMENT_THEORY = SGP/SGP4

EPOCH          = 2026-01-24T00:13:13.539936
MEAN_MOTION    = 15.16860811
ECCENTRICITY   = .00330621
INCLINATION    = 43.0138
RA_OF_ASC_NODE = 264.9670
ARG_OF_PERICENTER = 310.4033
MEAN_ANOMALY   = 49.3932

EPHEMERIS_TYPE = 0
CLASSIFICATION_TYPE = U
NORAD_CAT_ID   = 42758
ELEMENT_SET_NO = 999
REV_AT_EPOCH   = 47575
BSTAR          = .46999502E-3
MEAN_MOTION_DOT = .9322E-4
MEAN_MOTION_DDOT = 0

CCSDS_OMM_VERS = 2.0
CREATION_DATE  = 
ORIGINATOR     = 

OBJECT_NAME    = CZ-2C R/B
OBJECT_ID      = 2018-054D
CENTER_NAME    = EARTH
REF_FRAME      = TEME
TIME_SYSTEM    = UTC
MEAN_ELEMENT_THEORY = SGP/SGP4

EPOCH          = 2026-01-23T22:49:38.939232
MEAN_MOTION    = 15.86852624
ECCENTRICITY   = .0012488
INCLINATION    = 35.1308
RA_OF_ASC_NODE = 252.2902
ARG_OF_PERICENTER = 228.0513
MEAN_ANOMALY   = 131.9160

EPHEMERIS_TYPE = 0
CLASSIFICATION_TYPE = U
NORAD_CAT_ID   = 43521
ELEMENT_SET_NO = 999
REV_AT_EPOCH   = 42173
BSTAR          = .89981E-3
MEAN_MOTION_DOT = .249075E-2
MEAN_MOTION_DDOT = 0

CCSDS_OMM_VERS = 2.0
CREATION_DATE  = 
ORIGINATOR     = 

OBJECT_NAME    = SAOCOM 1A
OBJECT_ID      = 2018-076A
CENTER_NAME    = EARTH
REF_FRAME      = TEME
TIME_SYSTEM    = UTC
MEAN_ELEMENT_THEORY = SGP/SGP4

EPOCH          = 2026-01-24T06:30:18.222336
MEAN_MOTION    = 14.82162942
ECCENTRICITY   = .00014879
INCLINATION    = 97.8856
RA_OF_ASC_NODE = 213.0756
ARG_OF_PERICENTER = 85.5722
MEAN_ANOMALY   = 274.5661

EPHEMERIS_TYPE = 0
CLASSIFICATION_TYPE = U
NORAD_CAT_ID   = 43641
ELEMENT_SET_NO = 999
REV_AT_EPOCH   = 39478
BSTAR          = .80724361E-4
MEAN_MOTION_DOT = .591E-5
MEAN_MOTION_DDOT = 0

CCSDS_OMM_VERS = 2.0
CREATION_DATE  = 
ORIGINATOR     = 

OBJECT_NAME    = H-2A R/B
OBJECT_ID      = 2018-084L
CENTER_NAME    = EARTH
REF_FRAME      = TEME
TIME_SYSTEM    = UTC
MEAN_ELEMENT_THEORY = SGP/SGP4

EPOCH          = 2026-01-24T07:10:55.540416
MEAN_MOTION    = 15.39281414
ECCENTRICITY   = .00260249
INCLINATION    = 98.8762
RA_OF_ASC_NODE = 232.2661
ARG_OF_PERICENTER = 175.8964
MEAN_ANOMALY   = 184.2495

EPHEMERIS_TYPE = 0
CLASSIFICATION_TYPE = U
NORAD_CAT_ID   = 43682
ELEMENT_SET_NO = 999
REV_AT_EPOCH   = 39894
BSTAR          = .81204724E-3
MEAN_MOTION_DOT = .32008E-3
MEAN_MOTION_DDOT = 0

CCSDS_OMM_VERS = 2.0
CREATION_DATE  = 
ORIGINATOR     = 

OBJECT_NAME    = SAOCOM 1B
OBJECT_ID      = 2020-059A
CENTER_NAME    = EARTH
REF_FRAME      = TEME
TIME_SYSTEM    = UTC
MEAN_ELEMENT_THEORY = SGP/SGP4

EPOCH          = 2026-01-23T11:48:39.089376
MEAN_MOTION    = 14.82165388
ECCENTRICITY   = .00014161
INCLINATION    = 97.8852
RA_OF_ASC_NODE = 211.4066
ARG_OF_PERICENTER = 89.8155
MEAN_ANOMALY   = 270.3220

EPHEMERIS_TYPE = 0
CLASSIFICATION_TYPE = U
NORAD_CAT_ID   = 46265
ELEMENT_SET_NO = 999
REV_AT_EPOCH   = 29205
BSTAR          = .15249695E-3
MEAN_MOTION_DOT = .1162E-4
MEAN_MOTION_DDOT = 0

CCSDS_OMM_VERS = 2.0
CREATION_DATE  = 
ORIGINATOR     = 

OBJECT_NAME    = CSS (TIANHE)
OBJECT_ID      = 2021-035A
CENTER_NAME    = EARTH
REF_FRAME      = TEME
TIME_SYSTEM    = UTC
MEAN_ELEMENT_THEORY = SGP/SGP4

EPOCH          = 2026-01-24T06:51:31.034304
MEAN_MOTION    = 15.60992638
ECCENTRICITY   = .00100996
INCLINATION    = 41.4667
RA_OF_ASC_NODE = 118.0663
ARG_OF_PERICENTER = 350.3753
MEAN_ANOMALY   = 9.6891

EPHEMERIS_TYPE = 0
CLASSIFICATION_TYPE = U
NORAD_CAT_ID   = 48274
ELEMENT_SET_NO = 999
REV_AT_EPOCH   = 27067
BSTAR          = .3484028E-3
MEAN_MOTION_DOT = .29945E-3
MEAN_MOTION_DDOT = 0

CCSDS_OMM_VERS = 2.0
CREATION_DATE  = 
ORIGINATOR     = 

OBJECT_NAME    = COSMOS 2550
OBJECT_ID      = 2021-056A
CENTER_NAME    = EARTH
REF_FRAME      = TEME
TIME_SYSTEM    = UTC
MEAN_ELEMENT_THEORY = SGP/SGP4

EPOCH          = 2026-01-23T09:26:54.726144
MEAN_MOTION    = 15.33842763
ECCENTRICITY   = .00084274
INCLINATION    = 67.1417
RA_OF_ASC_NODE = 177.9415
ARG_OF_PERICENTER = 270.0851
MEAN_ANOMALY   = 89.9337

EPHEMERIS_TYPE = 0
CLASSIFICATION_TYPE = U
NORAD_CAT_ID   = 48865
ELEMENT_SET_NO = 999
REV_AT_EPOCH   = 25651
BSTAR          = -.42471E-7
MEAN_MOTION_DOT = -.193E-5
MEAN_MOTION_DDOT = 0

CCSDS_OMM_VERS = 2.0
CREATION_DATE  = 
ORIGINATOR     = 

OBJECT_NAME    = CZ-2C R/B
OBJECT_ID      = 2022-058K
CENTER_NAME    = EARTH
REF_FRAME      = TEME
TIME_SYSTEM    = UTC
MEAN_ELEMENT_THEORY = SGP/SGP4

EPOCH          = 2026-01-24T04:04:00.963840
MEAN_MOTION    = 15.51105044
ECCENTRICITY   = .00426103
INCLINATION    = 50.1889
RA_OF_ASC_NODE = 186.7597
ARG_OF_PERICENTER = 13.0309
MEAN_ANOMALY   = 347.1751

EPHEMERIS_TYPE = 0
CLASSIFICATION_TYPE = U
NORAD_CAT_ID   = 52794
ELEMENT_SET_NO = 999
REV_AT_EPOCH   = 20321
BSTAR          = .70513696E-3
MEAN_MOTION_DOT = .4327E-3
MEAN_MOTION_DDOT = 0

