SL-4 R/B                
1 39679U 14021B   26024.26222174  .00017225  00000+0  39507-3 0  9995
2 39679  51.6065 193.7744 0099129 300.8503  58.2757 15.37782681649431
ALOS-2                  
1 39766U 14029A   26024.28410497  .00000377  00000+0  57423-4 0  9997
2 39766  97.9196 123.5190 0001430 104.0067 256.1304 14.79460965630305
YAOGAN-29               
1 41038U 15069A   26024.32953815  .00000384  00000+0  54007-4 0  9991
2 41038  98.0187  52.6316 0002708 110.9529 249.1975 14.82938860549305
ASTRO-H (HITOMI)        
1 41337U 16012A   26024.00982049  .00004796  00000+0  28470-3 0  9993
2 41337  30.9998 284.8060 0009913 244.5116 115.4496 15.09665974545478
HXMT (HUIYAN)           
1 42758U 17034A   26024.00918449  .00009322  00000+0  47000-3 0  9999
2 42758  43.0138 264.9670 0033062 310.4033  49.3932 15.16860811475754
CZ-2C R/B               
1 43521U 18054D   26023.95114513  .00249075  00000+0  89981-3 0  9999
2 43521  35.1308 252.2902 0012488 228.0513 131.9160 15.86852624421738
SAOCOM 1A               
1 43641U 18076A   26024.27104424  .00000591  00000+0  80724-4 0  9997
2 43641  97.8856 213.0756 0001487  85.5722 274.5661 14.82162942394787
H-2A R/B                
1 43682U 18084L   26024.29925394  .00032008  00000+0  81205-3 0  9992
2 43682  98.8762 232.2661 0026024 175.8964 184.2495 15.39281414398945
SAOCOM 1B               
1 46265U 20059A   26023.49211909  .00001162  00000+0  15250-3 0  9992
2 46265  97.8852 211.4066 0001416  89.8155 270.3220 14.82165388292052
CSS (TIANHE)            
1 48274U 21035A   26024.28577586  .00029945  00000+0  34840-3 0  9998
2 48274  41.4667 118.0663 0010099 350.3753   9.6891 15.60992638270679
COSMOS 2550             
1 48865U 21056A   26023.39368896 -.00000193  00000+0 -42471-7 0  9999
2 48865  67.1417 177.9415 0008427 270.0851  89.9337 15.33842763256517
CZ-2C R/B               
1 52794U 22058K   26024.16945560  .00043270  00000+0  70514-3 0  9999
2 52794  50.1889 186.7597 0042610  13.0309 347.1751 15.51105044203214
